{"type":"FeatureCollection","features":[{"type":"Feature","properties":{"id":"riverwalk-loop-v3-public","name":"Riverwalk Loop"},"geometry":{"type":"LineString","coordinates":[[-85.305834,35.060177],[-85.304896,35.061632],[-85.304856,35.061692],[-85.30481,35.061734],[-85.303454,35.061197],[-85.30187,35.061086],[-85.301479,35.060967],[-85.301781,35.060556],[-85.301962,35.060028],[-85.30304,35.055662],[-85.303464,35.054479],[-85.303501,35.054418],[-85.303737,35.054135],[-85.303802,35.054094],[-85.304309,35.053854],[-85.304809,35.053891],[-85.305502,35.054134],[-85.305572,35.054168],[-85.306478,35.054976],[-85.306541,35.05501],[-85.307609,35.054838],[-85.307613,35.054774],[-85.307466,35.049772],[-85.307438,35.049726],[-85.306182,35.049741],[-85.306099,35.049743],[-85.306022,35.049752],[-85.305879,35.05],[-85.30583,35.050033],[-85.303087,35.049012],[-85.303029,35.048978],[-85.306761,35.042692],[-85.30682,35.042649],[-85.309036,35.041838],[-85.311463,35.041804],[-85.311531,35.041783],[-85.312156,35.040661],[-85.312174,35.040604],[-85.311263,35.040256],[-85.311255,35.040235],[-85.31142,35.040212],[-85.311487,35.040185],[-85.312549,35.038098],[-85.313388,35.038405],[-85.313434,35.038367],[-85.318875,35.028498],[-85.318913,35.028438],[-85.319321,35.028003],[-85.319383,35.028029],[-85.319575,35.028162],[-85.31962,35.028216],[-85.31973,35.028547],[-85.319788,35.028568],[-85.320203,35.028521],[-85.32022,35.028582],[-85.320391,35.029739],[-85.320419,35.029874],[-85.320557,35.03034],[-85.320583,35.030402],[-85.320746,35.030432],[-85.320752,35.030484],[-85.320708,35.030616],[-85.320719,35.030683],[-85.321011,35.031753],[-85.321039,35.031815],[-85.321364,35.032031],[-85.321612,35.03205],[-85.321681,35.032024],[-85.322774,35.031078],[-85.32285,35.031081],[-85.323175,35.031148],[-85.323237,35.031186],[-85.323369,35.031361],[-85.323404,35.031423],[-85.324831,35.034571],[-85.325648,35.037229],[-85.325648,35.037294],[-85.325382,35.037797],[-85.325523,35.038542],[-85.325522,35.038609],[-85.325346,35.038994],[-85.325386,35.039044],[-85.32551,35.039134],[-85.325461,35.039336],[-85.325453,35.0394],[-85.325665,35.03951],[-85.3257,35.039569],[-85.325767,35.039767],[-85.32562,35.040231],[-85.325767,35.041252],[-85.326895,35.042933],[-85.326925,35.042995],[-85.326629,35.045381],[-85.326597,35.045443],[-85.326198,35.045966],[-85.326132,35.046373],[-85.32548,35.047783],[-85.325457,35.047849],[-85.325084,35.049183],[-85.325262,35.049329],[-85.325285,35.049384],[-85.325232,35.049514],[-85.324996,35.049953],[-85.324496,35.050414],[-85.324465,35.050477],[-85.324167,35.051404],[-85.324123,35.051461],[-85.322804,35.052608],[-85.322145,35.053402],[-85.32209,35.053452],[-85.320503,35.05446],[-85.320429,35.054492],[-85.319521,35.054843],[-85.319037,35.054954],[-85.318981,35.054922],[-85.318768,35.054627],[-85.318722,35.054576],[-85.317019,35.054933],[-85.316946,35.054962],[-85.316355,35.055447],[-85.315691,35.055738],[-85.315611,35.055755],[-85.313195,35.055948],[-85.312063,35.056197],[-85.312014,35.056181],[-85.312005,35.056122],[-85.311928,35.056148],[-85.311905,35.056105],[-85.311886,35.055489],[-85.311867,35.055435],[-85.310529,35.055487],[-85.310521,35.055541],[-85.310533,35.055609],[-85.309958,35.055694],[-85.309875,35.055699],[-85.307698,35.055715],[-85.307656,35.05568],[-85.307613,35.05479],[-85.307508,35.051022],[-85.307441,35.051009],[-85.30652,35.051025],[-85.306476,35.050992],[-85.306414,35.04976],[-85.306441,35.049696],[-85.306843,35.049018],[-85.316794,35.032253],[-85.318904,35.028447],[-85.319312,35.028013],[-85.319372,35.028022],[-85.319563,35.028155],[-85.319616,35.028205],[-85.319726,35.028535],[-85.319774,35.028569],[-85.320189,35.028523],[-85.320218,35.028571],[-85.3204,35.029795],[-85.320416,35.029862],[-85.320574,35.030395],[-85.320732,35.030429],[-85.320756,35.030472],[-85.320712,35.030604],[-85.320715,35.030671],[-85.321028,35.031807],[-85.321352,35.032023],[-85.321431,35.032038],[-85.321598,35.032049],[-85.321671,35.032032],[-85.322764,35.031087],[-85.322836,35.031079],[-85.323161,35.031145],[-85.32323,35.031176],[-85.323361,35.031351],[-85.323399,35.031412],[-85.323772,35.032245]]}},{"type":"Feature","properties":{"id":"zoo-loop-v2-full-public","name":"Zoo Loop"},"geometry":{"type":"LineString","coordinates":[[-85.306413,35.049743],[-85.306475,35.050976],[-85.3065,35.051025],[-85.307505,35.051008],[-85.305838,35.060156],[-85.305807,35.060218],[-85.30483,35.061733],[-85.304759,35.061714],[-85.303478,35.061206],[-85.303397,35.061192],[-85.302062,35.061101],[-85.301898,35.061084],[-85.301715,35.060946],[-85.303045,35.055643],[-85.30347,35.05446],[-85.303751,35.054119],[-85.304257,35.053879],[-85.304333,35.053855],[-85.30475,35.053885],[-85.304831,35.053899],[-85.305662,35.054223],[-85.306497,35.054991],[-85.306567,35.055006],[-85.307553,35.054847],[-85.307614,35.05482],[-85.307465,35.049751],[-85.307411,35.049726],[-85.306072,35.049743],[-85.306011,35.049772],[-85.305868,35.05002],[-85.305804,35.050028],[-85.305725,35.050006],[-85.289857,35.043975],[-85.289847,35.043927],[-85.290942,35.041926],[-85.284916,35.039696],[-85.284913,35.040308],[-85.284905,35.040375],[-85.284792,35.040559],[-85.284724,35.040592],[-85.284098,35.040788],[-85.284041,35.04083],[-85.283477,35.041974],[-85.282852,35.042166],[-85.282772,35.042159],[-85.282367,35.042073],[-85.282311,35.042104],[-85.281809,35.042816],[-85.281754,35.042859],[-85.281587,35.042875],[-85.281097,35.042613],[-85.281292,35.042237],[-85.281343,35.042187],[-85.281481,35.042108],[-85.281553,35.042074],[-85.281865,35.041975],[-85.281944,35.04197],[-85.282265,35.042049],[-85.282343,35.042062],[-85.285146,35.039802],[-85.28519,35.039745],[-85.285224,35.039683],[-85.286364,35.037548],[-85.286427,35.037561],[-85.288144,35.038415],[-85.288219,35.038445],[-85.29376,35.040385],[-85.293778,35.040431],[-85.293079,35.041676],[-85.293116,35.041716],[-85.298052,35.043591],[-85.298096,35.043625],[-85.297878,35.043833],[-85.297848,35.043894],[-85.297831,35.044099],[-85.297754,35.044115],[-85.297589,35.044137],[-85.297617,35.044181],[-85.297717,35.044281],[-85.297553,35.044311],[-85.297501,35.044358],[-85.297263,35.04472],[-85.297218,35.044773],[-85.296885,35.044803],[-85.296817,35.044834],[-85.29661,35.045049],[-85.296339,35.045475],[-85.296296,35.045606],[-85.296092,35.046335]]}},{"type":"Feature","properties":{"id":"Riverwalk_trail-test-public","name":"Riverwalk Greenway Trail"},"geometry":{"type":"LineString","coordinates":[[-85.320189,35.028468],[-85.320088,35.027787],[-85.320093,35.027721],[-85.328058,35.009749],[-85.328106,35.009777],[-85.328317,35.00999],[-85.328351,35.01005],[-85.328417,35.010319],[-85.328424,35.010386],[-85.328183,35.011254],[-85.327182,35.013798],[-85.327144,35.013853],[-85.326673,35.013998],[-85.326664,35.01405],[-85.326712,35.014181],[-85.326865,35.014237],[-85.326887,35.01428],[-85.326315,35.015194],[-85.324062,35.017492],[-85.323395,35.017906],[-85.323397,35.017951],[-85.323446,35.018],[-85.322796,35.018798],[-85.322787,35.018847],[-85.323692,35.019202],[-85.323757,35.019239],[-85.323986,35.019754],[-85.324021,35.019816],[-85.324352,35.020124],[-85.324431,35.020461],[-85.324475,35.020732],[-85.324477,35.0208],[-85.324423,35.021278],[-85.324404,35.021342],[-85.323515,35.021966],[-85.322822,35.022207],[-85.322762,35.022254],[-85.322378,35.022616],[-85.321978,35.023444],[-85.321914,35.023483],[-85.321094,35.023827],[-85.321435,35.024294],[-85.32149,35.024345],[-85.321872,35.024611],[-85.321845,35.024665],[-85.321275,35.025342],[-85.321306,35.025391],[-85.321552,35.025578],[-85.321526,35.025634],[-85.320237,35.027318],[-85.320089,35.027711],[-85.320089,35.027778],[-85.3202,35.028526],[-85.320569,35.030352],[-85.320616,35.030399],[-85.320695,35.030421],[-85.32076,35.030457],[-85.320889,35.030541],[-85.323829,35.032241],[-85.323823,35.032187],[-85.323241,35.0312],[-85.323192,35.03115],[-85.322954,35.031085],[-85.322874,35.03107],[-85.322712,35.031094],[-85.321698,35.032007],[-85.32164,35.03205],[-85.321237,35.031956],[-85.321173,35.031918],[-85.320937,35.031637],[-85.320705,35.030627],[-85.320758,35.030497],[-85.320707,35.03064],[-85.320942,35.03165],[-85.321183,35.03193],[-85.321254,35.03196],[-85.321576,35.032035],[-85.321654,35.032047],[-85.322724,35.031085],[-85.32289,35.031068],[-85.323208,35.031154],[-85.323831,35.0322],[-85.324319,35.033582],[-85.324813,35.034527],[-85.324838,35.034592],[-85.325655,35.037251],[-85.325637,35.037314],[-85.325404,35.037755],[-85.325386,35.037819],[-85.325527,35.038564],[-85.325513,35.038629],[-85.325366,35.03895],[-85.325343,35.039013],[-85.325469,35.039103],[-85.325505,35.039156],[-85.325456,35.039358],[-85.325476,35.039412],[-85.325684,35.039525],[-85.325753,35.039722],[-85.325761,35.039788],[-85.325635,35.040186],[-85.32562,35.040253],[-85.32576,35.041206],[-85.325777,35.041272],[-85.326908,35.042952],[-85.326922,35.043017],[-85.326626,35.045403],[-85.326228,35.045926],[-85.32619,35.045987],[-85.3252,35.048605],[-85.325088,35.049146],[-85.325109,35.049204],[-85.325287,35.04935],[-85.325274,35.049412],[-85.325218,35.049541],[-85.325015,35.049917],[-85.324973,35.049975],[-85.324528,35.050385],[-85.324477,35.050439],[-85.324156,35.051432],[-85.322782,35.052631],[-85.32264,35.052879],[-85.322012,35.053521],[-85.320478,35.054473],[-85.319094,35.05496],[-85.318858,35.05489],[-85.318769,35.054625],[-85.318734,35.054579],[-85.317352,35.054856],[-85.317029,35.05493],[-85.316954,35.054956],[-85.316224,35.055521],[-85.31616,35.055564],[-85.315703,35.055735],[-85.315624,35.055754],[-85.313208,35.055946],[-85.31057,35.05662],[-85.310489,35.056633],[-85.309655,35.056698],[-85.309593,35.056737],[-85.30954,35.05679],[-85.309465,35.056798],[-85.308138,35.056648],[-85.307361,35.056245],[-85.307357,35.056178],[-85.30733,35.056154],[-85.307269,35.056182],[-85.307228,35.05605],[-85.30715,35.056075],[-85.307094,35.056048],[-85.306744,35.05558],[-85.306722,35.055561],[-85.306852,35.055901],[-85.30679,35.055774],[-85.306469,35.055373],[-85.306098,35.055002],[-85.306023,35.055019],[-85.305793,35.0551],[-85.305625,35.054948],[-85.305377,35.054935],[-85.304541,35.05491],[-85.304479,35.054888],[-85.304357,35.054071],[-85.3044,35.054025],[-85.304473,35.053991],[-85.304455,35.053977],[-85.304396,35.053957],[-85.304393,35.053888],[-85.304358,35.053685],[-85.304304,35.053642],[-85.303696,35.053413],[-85.299568,35.051904],[-85.299727,35.052063],[-85.299734,35.052088],[-85.299274,35.051924],[-85.298688,35.051922],[-85.298612,35.051935],[-85.298465,35.052101],[-85.298396,35.052093],[-85.298093,35.051976],[-85.297591,35.051991],[-85.297365,35.052077],[-85.297219,35.052322],[-85.297179,35.052378],[-85.296678,35.052345],[-85.296644,35.052388],[-85.296547,35.053069],[-85.296504,35.053121],[-85.296436,35.053161],[-85.296362,35.053187],[-85.294772,35.05322],[-85.294689,35.053216],[-85.29428,35.053143],[-85.294199,35.05314],[-85.293715,35.053251],[-85.293634,35.053245],[-85.293391,35.053192],[-85.293311,35.053199],[-85.292261,35.053434],[-85.29127,35.053569],[-85.29119,35.053558],[-85.290715,35.053423],[-85.290659,35.053451],[-85.290489,35.053687],[-85.290424,35.053718],[-85.289342,35.053818],[-85.289016,35.053758],[-85.288612,35.053668],[-85.288549,35.053628],[-85.288019,35.053097],[-85.287945,35.053081],[-85.287693,35.053081],[-85.287662,35.053121],[-85.28768,35.053395],[-85.285954,35.054479],[-85.284624,35.054891],[-85.28455,35.054921],[-85.283722,35.0555],[-85.283655,35.05554],[-85.282507,35.056104],[-85.280623,35.057664],[-85.279032,35.059678],[-85.278922,35.059862],[-85.277737,35.061981],[-85.27769,35.062037],[-85.276929,35.062766],[-85.276816,35.062867],[-85.276048,35.063396],[-85.275772,35.06397],[-85.275482,35.064107],[-85.275065,35.064127],[-85.274989,35.064148],[-85.274721,35.064313],[-85.274667,35.064362],[-85.274201,35.06539],[-85.274154,35.06544],[-85.273926,35.065526],[-85.273845,35.065527],[-85.273347,35.065469],[-85.273295,35.065496],[-85.272726,35.067498],[-85.271804,35.068803],[-85.271781,35.068866],[-85.271801,35.071196],[-85.271782,35.071332],[-85.271759,35.071398],[-85.27129,35.072498],[-85.270379,35.073202],[-85.270108,35.073628],[-85.270064,35.074312],[-85.27064,35.075816],[-85.27063,35.075883],[-85.270429,35.076759],[-85.270472,35.07758],[-85.270245,35.077782],[-85.270178,35.077817],[-85.269527,35.077946],[-85.269448,35.077931],[-85.268983,35.077776],[-85.268911,35.077743],[-85.268338,35.077245],[-85.268181,35.077197],[-85.267984,35.077321],[-85.267939,35.077376],[-85.267602,35.078004],[-85.267575,35.078068],[-85.267575,35.078342],[-85.267555,35.078407],[-85.266076,35.081018],[-85.265713,35.082496],[-85.265664,35.082548],[-85.265045,35.083009],[-85.264989,35.083059],[-85.264532,35.083792],[-85.264483,35.083844],[-85.263541,35.08429],[-85.263541,35.084427],[-85.26355,35.084493],[-85.264103,35.085096],[-85.26407,35.085135],[-85.263921,35.085196],[-85.263864,35.085235],[-85.263905,35.085782],[-85.262912,35.087893],[-85.262367,35.088894],[-85.262176,35.089119],[-85.262113,35.089154],[-85.261695,35.08917],[-85.261686,35.089221],[-85.261659,35.089255],[-85.261326,35.089224],[-85.260247,35.08934],[-85.260172,35.089363],[-85.259807,35.089646],[-85.259761,35.089702],[-85.259499,35.090131],[-85.259463,35.090193],[-85.259336,35.090801],[-85.259017,35.09088],[-85.258948,35.090913],[-85.257455,35.092393],[-85.256979,35.092672],[-85.256918,35.092718],[-85.256481,35.093303],[-85.256421,35.093345],[-85.254115,35.094161],[-85.254073,35.09421],[-85.254036,35.094482],[-85.254078,35.094539],[-85.254763,35.095318],[-85.254804,35.095374],[-85.254438,35.09599],[-85.254378,35.096031],[-85.25422,35.096078],[-85.254173,35.096125],[-85.254088,35.09639],[-85.254034,35.096424],[-85.253283,35.096472],[-85.253204,35.09649],[-85.252982,35.096587],[-85.252927,35.096623],[-85.253077,35.096787],[-85.2531,35.096843],[-85.252853,35.097201],[-85.252865,35.097255],[-85.253043,35.0974],[-85.253031,35.097443],[-85.25129,35.098394],[-85.250747,35.098575],[-85.250665,35.098581],[-85.25033,35.098581],[-85.25028,35.098633],[-85.250048,35.098918],[-85.249989,35.098964],[-85.247317,35.100108],[-85.247241,35.100137],[-85.245992,35.100533],[-85.245911,35.100549],[-85.245577,35.100566],[-85.243273,35.101386],[-85.240706,35.101706],[-85.238009,35.102199],[-85.235593,35.102408],[-85.234003,35.102441],[-85.23327,35.102295],[-85.233188,35.102285],[-85.231429,35.102285],[-85.231352,35.102263],[-85.231209,35.102193],[-85.231372,35.102273],[-85.231451,35.102285],[-85.23321,35.102285],[-85.234025,35.102443],[-85.235616,35.102407],[-85.238031,35.102197],[-85.240729,35.101703],[-85.243048,35.101417],[-85.243213,35.101396],[-85.243294,35.101379],[-85.245521,35.100586],[-85.245599,35.100564],[-85.245934,35.100548],[-85.247263,35.10013],[-85.248303,35.099688],[-85.251102,35.098448],[-85.251177,35.098419],[-85.251258,35.0984],[-85.251335,35.098374],[-85.253073,35.097419],[-85.25442,35.096019],[-85.254787,35.095403],[-85.254786,35.095344],[-85.254052,35.09451],[-85.254041,35.094446],[-85.254078,35.094174],[-85.256461,35.09333],[-85.256633,35.093095],[-85.256611,35.093083],[-85.256381,35.093165],[-85.231209,35.10217],[-85.231128,35.10218],[-85.230088,35.10218]]}},{"type":"Feature","properties":{"id":"South_Chick_GreenWay-public","name":"South Chickamauga Creek"},"geometry":{"type":"LineString","coordinates":[[-85.25116,35.08982],[-85.2519,35.089706],[-85.254127,35.089104],[-85.254206,35.089118],[-85.254276,35.089147],[-85.254527,35.089729],[-85.255016,35.089992],[-85.255098,35.089989],[-85.25593,35.089911],[-85.25601,35.089892],[-85.256702,35.089648],[-85.256775,35.089616],[-85.258111,35.08868],[-85.259104,35.089042],[-85.259149,35.088999],[-85.259471,35.088441],[-85.259534,35.088419],[-85.260035,35.08845],[-85.261195,35.088845],[-85.261236,35.088896],[-85.261317,35.089162],[-85.261301,35.089208],[-85.261218,35.089217],[-85.256645,35.089665],[-85.255954,35.089909],[-85.255038,35.089994],[-85.254966,35.089966],[-85.254545,35.089741],[-85.254507,35.089683],[-85.254284,35.089166],[-85.254229,35.089124],[-85.254149,35.089102],[-85.251842,35.089719],[-85.250029,35.089988],[-85.249948,35.089987],[-85.249154,35.08977],[-85.247396,35.089785],[-85.24723,35.089768],[-85.245907,35.089592],[-85.245547,35.089215],[-85.245487,35.089244],[-85.245303,35.089383],[-85.245235,35.089416],[-85.244649,35.089399],[-85.243289,35.089054],[-85.243207,35.089041],[-85.241464,35.088854],[-85.239789,35.088854],[-85.23971,35.088834],[-85.239254,35.088661],[-85.239222,35.08862],[-85.240816,35.085977],[-85.240831,35.085914],[-85.240596,35.085114],[-85.240564,35.085058],[-85.239592,35.084852],[-85.239213,35.084999],[-85.239132,35.085009],[-85.238881,35.085009],[-85.238798,35.085003],[-85.238002,35.084791],[-85.23793,35.084759],[-85.237409,35.084414],[-85.23567,35.084622],[-85.232574,35.084522],[-85.232407,35.084511],[-85.231009,35.084292],[-85.228438,35.083675],[-85.228076,35.083848],[-85.227527,35.084364],[-85.227479,35.084333],[-85.227389,35.084218],[-85.22733,35.084176],[-85.226604,35.084011],[-85.226432,35.083864],[-85.226369,35.083846],[-85.226152,35.08395],[-85.226073,35.083939],[-85.223674,35.083329],[-85.223605,35.083292],[-85.222638,35.082637],[-85.221115,35.082066],[-85.221034,35.082053],[-85.220368,35.081989],[-85.218517,35.080927],[-85.218511,35.080866],[-85.218563,35.080595],[-85.218817,35.080241],[-85.218771,35.080192],[-85.218228,35.079764],[-85.218265,35.079709],[-85.219375,35.07842],[-85.219419,35.078362],[-85.220062,35.077323],[-85.220521,35.07644],[-85.220545,35.076375],[-85.220645,35.075833],[-85.220838,35.075529],[-85.22088,35.074982],[-85.220907,35.074921],[-85.221058,35.074756],[-85.221119,35.07471],[-85.221655,35.074381],[-85.221733,35.074371],[-85.224574,35.074526],[-85.226894,35.073739],[-85.226969,35.073709],[-85.227352,35.073442],[-85.227405,35.073391],[-85.227864,35.072738],[-85.228151,35.072167],[-85.228146,35.0721],[-85.228089,35.071831],[-85.22794,35.07151],[-85.227896,35.071455],[-85.227494,35.071208],[-85.225796,35.070624],[-85.225716,35.070606],[-85.225051,35.07054],[-85.224557,35.070283],[-85.224486,35.07027],[-85.223983,35.070517],[-85.223818,35.07051],[-85.222901,35.070437],[-85.222739,35.070407],[-85.219678,35.069696],[-85.216723,35.069209],[-85.216557,35.069217],[-85.214559,35.069395],[-85.214496,35.069433],[-85.214335,35.069591],[-85.214304,35.069564],[-85.214171,35.069097],[-85.214127,35.06904],[-85.213867,35.068771],[-85.213806,35.068725],[-85.212316,35.06784],[-85.212256,35.067793],[-85.211958,35.067462],[-85.211904,35.067412],[-85.211571,35.06738],[-85.211609,35.067368],[-85.211847,35.067322],[-85.211447,35.06672],[-85.211295,35.065838],[-85.211325,35.065779],[-85.211475,35.065614],[-85.21149,35.065549],[-85.211666,35.063704],[-85.211673,35.063636],[-85.211693,35.063573],[-85.212255,35.063162],[-85.212302,35.063107],[-85.212603,35.062617],[-85.213704,35.061993],[-85.215682,35.060132],[-85.215627,35.060097],[-85.21467,35.059673],[-85.214594,35.059646],[-85.214024,35.059533],[-85.21395,35.059504],[-85.213596,35.059321],[-85.213564,35.059259],[-85.213459,35.058999],[-85.213839,35.058312],[-85.213856,35.058252],[-85.213753,35.058143],[-85.213726,35.058087],[-85.215573,35.054785],[-85.215603,35.054651],[-85.215754,35.053768],[-85.214625,35.052667],[-85.214122,35.051577],[-85.214076,35.051526],[-85.213151,35.051206],[-85.212756,35.050952],[-85.212719,35.050906],[-85.213217,35.050272],[-85.213303,35.050154],[-85.215228,35.046655],[-85.216139,35.045424],[-85.217515,35.044227],[-85.219497,35.043202],[-85.219544,35.043161],[-85.219174,35.042623],[-85.21911,35.042581],[-85.218899,35.04247],[-85.21883,35.042475],[-85.218696,35.042557],[-85.218758,35.043102],[-85.218655,35.043289],[-85.21845,35.043407],[-85.216852,35.044284],[-85.216778,35.044279],[-85.210825,35.042084],[-85.210758,35.042046],[-85.210657,35.041937],[-85.210645,35.041871],[-85.210575,35.040227],[-85.210564,35.039953],[-85.21057,35.039886],[-85.21346,35.032729],[-85.213561,35.032049],[-85.213566,35.03198],[-85.213587,35.027763],[-85.213523,35.032217],[-85.21353,35.032206],[-85.213566,35.032002],[-85.21363,35.021312],[-85.21362,35.021245],[-85.213584,35.021111],[-85.212196,35.016028],[-85.212177,35.015961],[-85.21214,35.015901],[-85.211068,35.014592],[-85.21098,35.014476],[-85.210884,35.014286],[-85.211112,35.014086],[-85.211156,35.014036],[-85.210773,35.01377],[-85.210707,35.013756],[-85.210423,35.013901],[-85.210357,35.013892],[-85.209381,35.013142],[-85.209316,35.0131],[-85.208647,35.012817],[-85.204172,35.011941],[-85.204094,35.011918],[-85.203802,35.011783],[-85.203753,35.01173],[-85.203401,35.011185],[-85.202932,35.007988],[-85.202917,35.007925],[-85.202333,35.007959],[-85.202297,35.007904],[-85.202069,35.007389],[-85.202086,35.006979],[-85.201195,35.00566],[-85.200925,35.005313],[-85.200861,35.005276],[-85.200226,35.005103],[-85.200159,35.005064],[-85.200041,35.004967],[-85.200011,35.004911],[-85.20015,35.004375],[-85.200096,35.004341],[-85.199618,35.004216],[-85.199919,35.003829]]}},{"type":"Feature","properties":{"id":"cherokeeloop","name":"Cherokee Loop"},"geometry":{"type":"LineString","coordinates":[[-85.305834,35.060177],[-85.304856,35.061692],[-85.304841,35.061746],[-85.306197,35.062284],[-85.308657,35.062698],[-85.308735,35.06272],[-85.311651,35.064329],[-85.313454,35.065659],[-85.317016,35.06875],[-85.318913,35.0702],[-85.318963,35.070253],[-85.3193,35.070805],[-85.319331,35.070868],[-85.319349,35.071484],[-85.318585,35.074364],[-85.318581,35.074774],[-85.320068,35.07668],[-85.320691,35.077651],[-85.320727,35.077712],[-85.320807,35.078187],[-85.320787,35.078251],[-85.319839,35.079701],[-85.318258,35.081638],[-85.317617,35.083979],[-85.317333,35.08455],[-85.317291,35.084608],[-85.314994,35.086697],[-85.312501,35.089277],[-85.312437,35.089268],[-85.308208,35.087047],[-85.308131,35.087034],[-85.306399,35.087282],[-85.306317,35.087289],[-85.305361,35.087034],[-85.30534,35.086978],[-85.30534,35.086841],[-85.305283,35.086793],[-85.305095,35.086658],[-85.304111,35.08649],[-85.304083,35.086447],[-85.304112,35.086312],[-85.304172,35.086277],[-85.304573,35.086177],[-85.304613,35.086132],[-85.30463,35.08579],[-85.304608,35.08573],[-85.304544,35.085686],[-85.304473,35.08566],[-85.304054,35.085675],[-85.30399,35.085713],[-85.303358,35.086261],[-85.303296,35.086307],[-85.302679,35.086661],[-85.302533,35.087054],[-85.302253,35.087307],[-85.301502,35.087258],[-85.301453,35.087213],[-85.301028,35.086468],[-85.300783,35.086509],[-85.300721,35.08654],[-85.30068,35.086673],[-85.300657,35.086721],[-85.300536,35.086541],[-85.301026,35.085747],[-85.301073,35.085691],[-85.302,35.084899],[-85.302992,35.08427],[-85.303062,35.084233],[-85.303879,35.084083],[-85.303961,35.084087],[-85.305279,35.084283],[-85.30535,35.084264],[-85.306712,35.083149],[-85.30693,35.082857],[-85.306955,35.082794],[-85.307252,35.080545],[-85.307911,35.071928],[-85.308451,35.066738],[-85.308416,35.066677],[-85.3078,35.065782],[-85.307786,35.065716],[-85.307744,35.062548]]}},{"type":"Feature","properties":{"id":"Moccasin Bend Route","name":"Moccasin Bend Route"},"geometry":{"type":"LineString","coordinates":[[-85.305855,35.060177],[-85.305119,35.061331],[-85.305151,35.061374],[-85.305971,35.061717],[-85.306134,35.061744],[-85.307372,35.061915],[-85.307926,35.061761],[-85.307975,35.061707],[-85.308538,35.060945],[-85.308639,35.060403],[-85.308682,35.060352],[-85.308825,35.060282],[-85.308901,35.060276],[-85.309052,35.060324],[-85.308925,35.061209],[-85.309012,35.062165],[-85.309383,35.062536],[-85.309457,35.062564],[-85.310497,35.062826],[-85.310659,35.062796],[-85.311706,35.062555],[-85.31175,35.062591],[-85.311821,35.062788],[-85.311851,35.062845],[-85.311933,35.062832],[-85.319044,35.061255],[-85.319198,35.061202],[-85.324604,35.059178],[-85.324736,35.058504],[-85.324712,35.05844],[-85.32446,35.057932],[-85.324295,35.05719],[-85.324301,35.057124],[-85.324545,35.05654],[-85.324579,35.05648],[-85.32937,35.053265],[-85.329863,35.053006],[-85.32994,35.052981],[-85.330586,35.052837],[-85.333107,35.052923]]}}]}
