{"type":"FeatureCollection","_meta":{"deprecated":true,"status":"staged-for-removal","reason":"Payload is the authoritative trail source.","removeWhen":"Fresh databases bootstrap without this file and the runtime static fallback has been removed."},"features":[{"type":"Feature","properties":{"Trail":"Godsey Ridge Blue 1","Rec_Area":["Godsey Ridge"],"rating":["intermediate"],"Use_":["1"],"sourceFeatureCount":1,"source":"public/data/elevation/chattanooga/godsey-ridge-blue-1.json"},"geometry":{"type":"MultiLineString","coordinates":[[[-85.301432,35.121148],[-85.301493,35.12111],[-85.301512,35.121045],[-85.301495,35.120979],[-85.301481,35.120911],[-85.301467,35.120844],[-85.301441,35.120779],[-85.301414,35.120715],[-85.301397,35.120648],[-85.301377,35.120582],[-85.301374,35.120514],[-85.301418,35.120465],[-85.301498,35.120485],[-85.301579,35.1205],[-85.301649,35.120537],[-85.301724,35.120567],[-85.301803,35.120587],[-85.301876,35.120616],[-85.301949,35.120649],[-85.302028,35.120671],[-85.30211,35.120671],[-85.302192,35.120658],[-85.302272,35.120637],[-85.302348,35.120611],[-85.302417,35.120572],[-85.302481,35.120529],[-85.302541,35.12048],[-85.302594,35.120428],[-85.302661,35.120388],[-85.302701,35.120328],[-85.302757,35.120277],[-85.302808,35.120223],[-85.302853,35.120165],[-85.302837,35.120214],[-85.302804,35.120277],[-85.302756,35.120333],[-85.302712,35.120391],[-85.302674,35.120452],[-85.302634,35.120513],[-85.302583,35.120564],[-85.30251,35.120598],[-85.302452,35.120647],[-85.302388,35.120691],[-85.302333,35.120742],[-85.302276,35.120792],[-85.302216,35.12084],[-85.302158,35.120888],[-85.302092,35.12093],[-85.302064,35.120991],[-85.30204,35.121056],[-85.302028,35.121124],[-85.302042,35.121191],[-85.302065,35.121255],[-85.302071,35.121293]]]}},{"type":"Feature","properties":{"Trail":"Godsey Ridge Blue 2","Rec_Area":["Godsey Ridge"],"rating":["intermediate"],"Use_":["1"],"sourceFeatureCount":1,"source":"public/data/elevation/chattanooga/godsey-ridge-blue-2.json"},"geometry":{"type":"MultiLineString","coordinates":[[[-85.300742,35.123043],[-85.300795,35.122995],[-85.300842,35.122942],[-85.300853,35.122875],[-85.300856,35.122806],[-85.300847,35.122738],[-85.300833,35.122671],[-85.30081,35.122605],[-85.30082,35.122539],[-85.300841,35.122473],[-85.300889,35.122419],[-85.30096,35.122383],[-85.301007,35.122326],[-85.301047,35.122266],[-85.301083,35.122205],[-85.301089,35.122137],[-85.301084,35.122069],[-85.301073,35.122001],[-85.301056,35.121934],[-85.301041,35.121867],[-85.301022,35.1218],[-85.300984,35.121739],[-85.300944,35.121679],[-85.300904,35.121619],[-85.300863,35.121559],[-85.300824,35.121498],[-85.30081,35.121433],[-85.30083,35.121368],[-85.300899,35.121335],[-85.30098,35.121319],[-85.301064,35.121318],[-85.301146,35.121329],[-85.301225,35.12135],[-85.301308,35.121358],[-85.301391,35.12135],[-85.301473,35.121338],[-85.301554,35.121323],[-85.301625,35.121287],[-85.30167,35.121231],[-85.301698,35.121166],[-85.301711,35.121099],[-85.301701,35.121032],[-85.301676,35.120966],[-85.301651,35.120901],[-85.301623,35.120836],[-85.301583,35.120778],[-85.301513,35.120792],[-85.301509,35.120859],[-85.301526,35.120926],[-85.301546,35.120992],[-85.301546,35.12106],[-85.301522,35.121125],[-85.301459,35.121161],[-85.301432,35.121148]]]}},{"type":"Feature","properties":{"Trail":"Godsey Ridge Expert 1","Rec_Area":["Godsey Ridge"],"rating":["expert"],"Use_":["1"],"sourceFeatureCount":1,"source":"public/data/elevation/chattanooga/godsey-ridge-expert-1.json"},"geometry":{"type":"MultiLineString","coordinates":[[[-85.301427,35.121158],[-85.301401,35.121096],[-85.301389,35.121028],[-85.301366,35.120962],[-85.301334,35.1209],[-85.301278,35.120875],[-85.301311,35.120935],[-85.30132,35.121002],[-85.301298,35.121065],[-85.301226,35.121099],[-85.301221,35.121083],[-85.301241,35.121018],[-85.301251,35.12095],[-85.301229,35.120887],[-85.301206,35.120829],[-85.301187,35.120764],[-85.301151,35.120702],[-85.301114,35.12064],[-85.301072,35.120582],[-85.301015,35.120531],[-85.300964,35.120477],[-85.300935,35.120415],[-85.300921,35.120347],[-85.300962,35.120288],[-85.301042,35.120268],[-85.301125,35.120257],[-85.301206,35.12024],[-85.301287,35.120236],[-85.301369,35.120244],[-85.30145,35.120229],[-85.301533,35.120222],[-85.301615,35.120216],[-85.301698,35.120209],[-85.301781,35.120218],[-85.301864,35.12023],[-85.30194,35.120206],[-85.301994,35.120154],[-85.301984,35.120099],[-85.30191,35.120088],[-85.301826,35.120085],[-85.301743,35.120094],[-85.301662,35.120085],[-85.30158,35.12007],[-85.301498,35.120068],[-85.301417,35.120077],[-85.301334,35.120067],[-85.301252,35.120052],[-85.30117,35.120044],[-85.301086,35.120043],[-85.301002,35.120044],[-85.30092,35.120055],[-85.300839,35.12004],[-85.300756,35.120035],[-85.300685,35.120055],[-85.300645,35.120114],[-85.300624,35.120181],[-85.300593,35.120244],[-85.300569,35.120309],[-85.300586,35.120375],[-85.300613,35.12044],[-85.300628,35.120507],[-85.300655,35.120572],[-85.300667,35.120638],[-85.300653,35.120706],[-85.300629,35.120767],[-85.300555,35.1208],[-85.300482,35.120832],[-85.300404,35.120859],[-85.300324,35.120876],[-85.30031,35.120873]]]}},{"type":"Feature","properties":{"Trail":"Godsey Ridge Expert 2","Rec_Area":["Godsey Ridge"],"rating":["expert"],"Use_":["1"],"sourceFeatureCount":1,"source":"public/data/elevation/chattanooga/godsey-ridge-expert-2.json"},"geometry":{"type":"MultiLineString","coordinates":[[[-85.30031,35.120873],[-85.300236,35.120898],[-85.300209,35.120963],[-85.300173,35.121024],[-85.300129,35.121083],[-85.300079,35.121137],[-85.30006,35.121204],[-85.300044,35.121271],[-85.300047,35.121339],[-85.300067,35.121406],[-85.300096,35.12147],[-85.300138,35.121529],[-85.300162,35.121595],[-85.300186,35.121661],[-85.300209,35.121726],[-85.300228,35.121793],[-85.300213,35.121858],[-85.300183,35.121922],[-85.300131,35.121976],[-85.300073,35.122025],[-85.300026,35.122082],[-85.299976,35.122137],[-85.299931,35.122192],[-85.299919,35.12226],[-85.299899,35.122326],[-85.299865,35.122388],[-85.299889,35.122436],[-85.299952,35.122392],[-85.300004,35.122338],[-85.300073,35.122299],[-85.300146,35.122267],[-85.300227,35.12225],[-85.300307,35.122229],[-85.300377,35.122193],[-85.300436,35.122145],[-85.300483,35.122088],[-85.300512,35.122024],[-85.30053,35.121957],[-85.300545,35.12189],[-85.300549,35.121822],[-85.300532,35.121755],[-85.300491,35.121695],[-85.300462,35.121632],[-85.300466,35.121564],[-85.300465,35.121496],[-85.300453,35.121428],[-85.300447,35.12136],[-85.300455,35.121293],[-85.300505,35.121239],[-85.300585,35.12122],[-85.300668,35.12121],[-85.300751,35.121204],[-85.300834,35.121213],[-85.300914,35.121228],[-85.300996,35.121213],[-85.301078,35.121204],[-85.301161,35.121213],[-85.30124,35.121227],[-85.301321,35.12124],[-85.301397,35.121215],[-85.301427,35.121175],[-85.301427,35.121169]]]}},{"type":"Feature","properties":{"Trail":"Godsey Ridge Expert Spur","Rec_Area":["Godsey Ridge"],"rating":["expert"],"Use_":["1"],"sourceFeatureCount":1,"source":"public/data/elevation/chattanooga/godsey-ridge-expert-spur.json"},"geometry":{"type":"MultiLineString","coordinates":[[[-85.300307,35.120872],[-85.300258,35.120853],[-85.300327,35.120815],[-85.300405,35.120791],[-85.300477,35.120758],[-85.300528,35.120705],[-85.300522,35.120641],[-85.300491,35.12061]]]}},{"type":"Feature","properties":{"Trail":"Godsey Ridge Green","Rec_Area":["Godsey Ridge"],"rating":["easy"],"Use_":["1"],"sourceFeatureCount":1,"source":"public/data/elevation/chattanooga/godsey-ridge-green.json"},"geometry":{"type":"MultiLineString","coordinates":[[[-85.302469,35.121133],[-85.30239,35.12111],[-85.302308,35.121098],[-85.302227,35.121082],[-85.302158,35.121044],[-85.302092,35.12107],[-85.302088,35.121136],[-85.3021,35.121204],[-85.302076,35.121269],[-85.30204,35.12133],[-85.301984,35.121381],[-85.301916,35.12142],[-85.301852,35.121465],[-85.301793,35.121513],[-85.30172,35.121542],[-85.301638,35.121558],[-85.301556,35.12157],[-85.301476,35.121557],[-85.301397,35.121535],[-85.301324,35.121503],[-85.301243,35.121484],[-85.30116,35.12148],[-85.301133,35.121525],[-85.301209,35.121547],[-85.30123,35.1216],[-85.301214,35.121667],[-85.301194,35.121734],[-85.301182,35.121802],[-85.301193,35.121869],[-85.301228,35.121931],[-85.301254,35.121995],[-85.301262,35.122063],[-85.301253,35.122131],[-85.30123,35.122197],[-85.301191,35.122257],[-85.301147,35.122315],[-85.301097,35.122368],[-85.301026,35.122404],[-85.300957,35.12244],[-85.30092,35.122498],[-85.300945,35.122551],[-85.300929,35.122618],[-85.300923,35.122686],[-85.300928,35.122754],[-85.300927,35.122823],[-85.300911,35.12289],[-85.300878,35.122952],[-85.30082,35.123002],[-85.300762,35.123051],[-85.300703,35.123099],[-85.300636,35.123141],[-85.300582,35.123189],[-85.300614,35.12325],[-85.300683,35.12328],[-85.300678,35.123346],[-85.300658,35.123412],[-85.300625,35.123475],[-85.300603,35.12354],[-85.300645,35.123595]]]}}]}
